STARLINK-31738          
1 59535U 24074B   26019.68891996  .00001641  00000+0  69145-4 0  9998
2 59535  43.0006 256.4257 0001197 274.0540  86.0175 15.27573212 98563
STARLINK-31721          
1 59536U 24074C   26019.36409856  .00002624  00000+0  10484-3 0  9997
2 59536  43.0024 261.8300 0000778 257.5013 102.5751 15.27573324 98476
STARLINK-31737          
1 59537U 24074D   26019.70515508 -.00001692  00000+0 -51993-4 0  9995
2 59537  43.0016 260.0898 0001260 270.2921  89.7787 15.27569335 98526
STARLINK-31725          
1 59538U 24074E   26019.91668981  .00042414  00000+0  10719-2 0  9997
2 59538  42.9991 247.7163 0001742 265.2235  35.7096 15.39102458  5817
STARLINK-31539          
1 59539U 24074F   26019.71672400  .00000364  00000+0  22752-4 0  9997
2 59539  43.0025 260.1756 0001124 266.9587  93.1136 15.27577362 98527
STARLINK-31397          
1 59540U 24074G   26019.73087051 -.00005252  00000+0 -18132-3 0  9992
2 59540  43.0028 260.2855 0001618 264.7733  95.2934 15.27603932 98522
STARLINK-31481          
1 59541U 24074H   26019.93845279  .00000436  00000+0  25356-4 0  9993
2 59541  42.9995 258.4023 0000888 307.0368  53.0403 15.27571886 98562
STARLINK-31540          
1 59542U 24074J   26019.36795236 -.00000792  00000+0 -19258-4 0  9999
2 59542  43.0025 261.8572 0000766 278.8338  81.2427 15.27574327 98475
STARLINK-31574          
1 59543U 24074K   26019.72058838  .00006006  00000+0  22768-3 0  9991
2 59543  43.0036 260.2073 0001454 290.1042  69.9653 15.27570725 98529
STARLINK-31556          
1 59544U 24074L   26019.91930780  .00000630  00000+0  32424-4 0  9996
2 59544  43.0025 259.1218 0001352 266.5041  93.5656 15.27577912 98553
STARLINK-31582          
1 59545U 24074M   26019.66933219  .00004818  00000+0  18465-3 0  9999
2 59545  43.0007 260.6807 0000794 247.6830 112.3938 15.27548598 98517
STARLINK-31519          
1 59546U 24074N   26019.68327730  .00005148  00000+0  19627-3 0  9995
2 59546  42.9976 259.9255 0000486 269.4192  90.6604 15.27611074 98529
STARLINK-31736          
1 59547U 24074P   26019.64332325 -.00009628  00000+0 -34040-3 0  9993
2 59547  43.0027 253.5580 0001362 251.2377 108.8327 15.27617520 98591
STARLINK-31675          
1 59548U 24074Q   26019.69873044 -.00000931  00000+0 -24299-4 0  9991
2 59548  43.0037 260.0370 0001176 266.7536  93.3182 15.27584456 98525
STARLINK-31722          
1 59549U 24074R   26019.94100387  .00000425  00000+0  24970-4 0  9995
2 59549  43.0017 258.4187 0001169 275.9765  84.0953 15.27584223 98568
STARLINK-31741          
1 59550U 24074S   26019.68718600 -.00000880  00000+0 -22477-4 0  9998
2 59550  43.0029 259.9514 0001184 272.3589  87.7127 15.27574928 98525
