[{"OBJECT_NAME":"STARLINK-31738","OBJECT_ID":"2024-074B","EPOCH":"2026-01-19T16:32:02.684544","MEAN_MOTION":15.27573212,"ECCENTRICITY":0.00011978,"INCLINATION":43.0006,"RA_OF_ASC_NODE":256.4257,"ARG_OF_PERICENTER":274.054,"MEAN_ANOMALY":86.0175,"EPHEMERIS_TYPE":0,"CLASSIFICATION_TYPE":"U","NORAD_CAT_ID":59535,"ELEMENT_SET_NO":999,"REV_AT_EPOCH":9856,"BSTAR":6.914531e-5,"MEAN_MOTION_DOT":1.641e-5,"MEAN_MOTION_DDOT":0},{"OBJECT_NAME":"STARLINK-31721","OBJECT_ID":"2024-074C","EPOCH":"2026-01-19T08:44:18.115584","MEAN_MOTION":15.27573324,"ECCENTRICITY":7.783e-5,"INCLINATION":43.0024,"RA_OF_ASC_NODE":261.83,"ARG_OF_PERICENTER":257.5013,"MEAN_ANOMALY":102.5751,"EPHEMERIS_TYPE":0,"CLASSIFICATION_TYPE":"U","NORAD_CAT_ID":59536,"ELEMENT_SET_NO":999,"REV_AT_EPOCH":9847,"BSTAR":0.00010484431,"MEAN_MOTION_DOT":2.624e-5,"MEAN_MOTION_DDOT":0},{"OBJECT_NAME":"STARLINK-31737","OBJECT_ID":"2024-074D","EPOCH":"2026-01-19T16:55:25.398912","MEAN_MOTION":15.27569335,"ECCENTRICITY":0.00012603,"INCLINATION":43.0016,"RA_OF_ASC_NODE":260.0898,"ARG_OF_PERICENTER":270.2921,"MEAN_ANOMALY":89.7787,"EPHEMERIS_TYPE":0,"CLASSIFICATION_TYPE":"U","NORAD_CAT_ID":59537,"ELEMENT_SET_NO":999,"REV_AT_EPOCH":9852,"BSTAR":-5.1993223e-5,"MEAN_MOTION_DOT":-1.692e-5,"MEAN_MOTION_DDOT":0},{"OBJECT_NAME":"STARLINK-31725","OBJECT_ID":"2024-074E","EPOCH":"2026-01-19T22:00:01.999584","MEAN_MOTION":15.39102458,"ECCENTRICITY":0.00017421,"INCLINATION":42.9991,"RA_OF_ASC_NODE":247.7163,"ARG_OF_PERICENTER":265.2235,"MEAN_ANOMALY":35.7096,"EPHEMERIS_TYPE":0,"CLASSIFICATION_TYPE":"U","NORAD_CAT_ID":59538,"ELEMENT_SET_NO":999,"REV_AT_EPOCH":581,"BSTAR":0.001071889,"MEAN_MOTION_DOT":0.00042414,"MEAN_MOTION_DDOT":0},{"OBJECT_NAME":"STARLINK-31539","OBJECT_ID":"2024-074F","EPOCH":"2026-01-19T17:12:04.953600","MEAN_MOTION":15.27577362,"ECCENTRICITY":0.00011249,"INCLINATION":43.0025,"RA_OF_ASC_NODE":260.1756,"ARG_OF_PERICENTER":266.9587,"MEAN_ANOMALY":93.1136,"EPHEMERIS_TYPE":0,"CLASSIFICATION_TYPE":"U","NORAD_CAT_ID":59539,"ELEMENT_SET_NO":999,"REV_AT_EPOCH":9852,"BSTAR":2.2752023e-5,"MEAN_MOTION_DOT":3.64e-6,"MEAN_MOTION_DDOT":0},{"OBJECT_NAME":"STARLINK-31397","OBJECT_ID":"2024-074G","EPOCH":"2026-01-19T17:32:27.212064","MEAN_MOTION":15.27603932,"ECCENTRICITY":0.00016181,"INCLINATION":43.0028,"RA_OF_ASC_NODE":260.2855,"ARG_OF_PERICENTER":264.7733,"MEAN_ANOMALY":95.2934,"EPHEMERIS_TYPE":0,"CLASSIFICATION_TYPE":"U","NORAD_CAT_ID":59540,"ELEMENT_SET_NO":999,"REV_AT_EPOCH":9852,"BSTAR":-0.00018131965,"MEAN_MOTION_DOT":-5.252e-5,"MEAN_MOTION_DDOT":0},{"OBJECT_NAME":"STARLINK-31481","OBJECT_ID":"2024-074H","EPOCH":"2026-01-19T22:31:22.321056","MEAN_MOTION":15.27571886,"ECCENTRICITY":8.881e-5,"INCLINATION":42.9995,"RA_OF_ASC_NODE":258.4023,"ARG_OF_PERICENTER":307.0368,"MEAN_ANOMALY":53.0403,"EPHEMERIS_TYPE":0,"CLASSIFICATION_TYPE":"U","NORAD_CAT_ID":59541,"ELEMENT_SET_NO":999,"REV_AT_EPOCH":9856,"BSTAR":2.5355707e-5,"MEAN_MOTION_DOT":4.36e-6,"MEAN_MOTION_DDOT":0},{"OBJECT_NAME":"STARLINK-31540","OBJECT_ID":"2024-074J","EPOCH":"2026-01-19T08:49:51.083904","MEAN_MOTION":15.27574327,"ECCENTRICITY":7.668e-5,"INCLINATION":43.0025,"RA_OF_ASC_NODE":261.8572,"ARG_OF_PERICENTER":278.8338,"MEAN_ANOMALY":81.2427,"EPHEMERIS_TYPE":0,"CLASSIFICATION_TYPE":"U","NORAD_CAT_ID":59542,"ELEMENT_SET_NO":999,"REV_AT_EPOCH":9847,"BSTAR":-1.9258192e-5,"MEAN_MOTION_DOT":-7.92e-6,"MEAN_MOTION_DDOT":0},{"OBJECT_NAME":"STARLINK-31574","OBJECT_ID":"2024-074K","EPOCH":"2026-01-19T17:17:38.836032","MEAN_MOTION":15.27570725,"ECCENTRICITY":0.00014549,"INCLINATION":43.0036,"RA_OF_ASC_NODE":260.2073,"ARG_OF_PERICENTER":290.1042,"MEAN_ANOMALY":69.9653,"EPHEMERIS_TYPE":0,"CLASSIFICATION_TYPE":"U","NORAD_CAT_ID":59543,"ELEMENT_SET_NO":999,"REV_AT_EPOCH":9852,"BSTAR":0.00022767813,"MEAN_MOTION_DOT":6.006e-5,"MEAN_MOTION_DDOT":0},{"OBJECT_NAME":"STARLINK-31556","OBJECT_ID":"2024-074L","EPOCH":"2026-01-19T22:03:48.193920","MEAN_MOTION":15.27577912,"ECCENTRICITY":0.00013525,"INCLINATION":43.0025,"RA_OF_ASC_NODE":259.1218,"ARG_OF_PERICENTER":266.5041,"MEAN_ANOMALY":93.5656,"EPHEMERIS_TYPE":0,"CLASSIFICATION_TYPE":"U","NORAD_CAT_ID":59544,"ELEMENT_SET_NO":999,"REV_AT_EPOCH":9855,"BSTAR":3.2424001e-5,"MEAN_MOTION_DOT":6.3e-6,"MEAN_MOTION_DDOT":0},{"OBJECT_NAME":"STARLINK-31582","OBJECT_ID":"2024-074M","EPOCH":"2026-01-19T16:03:50.301216","MEAN_MOTION":15.27548598,"ECCENTRICITY":7.94e-5,"INCLINATION":43.0007,"RA_OF_ASC_NODE":260.6807,"ARG_OF_PERICENTER":247.683,"MEAN_ANOMALY":112.3938,"EPHEMERIS_TYPE":0,"CLASSIFICATION_TYPE":"U","NORAD_CAT_ID":59545,"ELEMENT_SET_NO":999,"REV_AT_EPOCH":9851,"BSTAR":0.0001846541,"MEAN_MOTION_DOT":4.818e-5,"MEAN_MOTION_DDOT":0},{"OBJECT_NAME":"STARLINK-31519","OBJECT_ID":"2024-074N","EPOCH":"2026-01-19T16:23:55.158720","MEAN_MOTION":15.27611074,"ECCENTRICITY":4.864e-5,"INCLINATION":42.9976,"RA_OF_ASC_NODE":259.9255,"ARG_OF_PERICENTER":269.4192,"MEAN_ANOMALY":90.6604,"EPHEMERIS_TYPE":0,"CLASSIFICATION_TYPE":"U","NORAD_CAT_ID":59546,"ELEMENT_SET_NO":999,"REV_AT_EPOCH":9852,"BSTAR":0.0001962739,"MEAN_MOTION_DOT":5.148e-5,"MEAN_MOTION_DDOT":0},{"OBJECT_NAME":"STARLINK-31736","OBJECT_ID":"2024-074P","EPOCH":"2026-01-19T15:26:23.128800","MEAN_MOTION":15.2761752,"ECCENTRICITY":0.00013625,"INCLINATION":43.0027,"RA_OF_ASC_NODE":253.558,"ARG_OF_PERICENTER":251.2377,"MEAN_ANOMALY":108.8327,"EPHEMERIS_TYPE":0,"CLASSIFICATION_TYPE":"U","NORAD_CAT_ID":59547,"ELEMENT_SET_NO":999,"REV_AT_EPOCH":9859,"BSTAR":-0.0003403963,"MEAN_MOTION_DOT":-9.628e-5,"MEAN_MOTION_DDOT":0},{"OBJECT_NAME":"STARLINK-31675","OBJECT_ID":"2024-074Q","EPOCH":"2026-01-19T16:46:10.310016","MEAN_MOTION":15.27584456,"ECCENTRICITY":0.00011764,"INCLINATION":43.0037,"RA_OF_ASC_NODE":260.037,"ARG_OF_PERICENTER":266.7536,"MEAN_ANOMALY":93.3182,"EPHEMERIS_TYPE":0,"CLASSIFICATION_TYPE":"U","NORAD_CAT_ID":59548,"ELEMENT_SET_NO":999,"REV_AT_EPOCH":9852,"BSTAR":-2.429948e-5,"MEAN_MOTION_DOT":-9.31e-6,"MEAN_MOTION_DDOT":0},{"OBJECT_NAME":"STARLINK-31722","OBJECT_ID":"2024-074R","EPOCH":"2026-01-19T22:35:02.734368","MEAN_MOTION":15.27584223,"ECCENTRICITY":0.00011698,"INCLINATION":43.0017,"RA_OF_ASC_NODE":258.4187,"ARG_OF_PERICENTER":275.9765,"MEAN_ANOMALY":84.0953,"EPHEMERIS_TYPE":0,"CLASSIFICATION_TYPE":"U","NORAD_CAT_ID":59549,"ELEMENT_SET_NO":999,"REV_AT_EPOCH":9856,"BSTAR":2.4970125e-5,"MEAN_MOTION_DOT":4.25e-6,"MEAN_MOTION_DDOT":0},{"OBJECT_NAME":"STARLINK-31741","OBJECT_ID":"2024-074S","EPOCH":"2026-01-19T16:29:32.870400","MEAN_MOTION":15.27574928,"ECCENTRICITY":0.0001184,"INCLINATION":43.0029,"RA_OF_ASC_NODE":259.9514,"ARG_OF_PERICENTER":272.3589,"MEAN_ANOMALY":87.7127,"EPHEMERIS_TYPE":0,"CLASSIFICATION_TYPE":"U","NORAD_CAT_ID":59550,"ELEMENT_SET_NO":999,"REV_AT_EPOCH":9852,"BSTAR":-2.2477299e-5,"MEAN_MOTION_DOT":-8.8e-6,"MEAN_MOTION_DDOT":0}]
